{
"type": "FeatureCollection",
"name": "index_map",
"xy_coordinate_resolution": 1e-07,
"features": [
{ "type": "Feature", "properties": { "Id": 0, "label": "SHEET1", "call_short": "G4364 .C629 1927 .S3", "call_num": "G4364 .C629 1927 .S3 SHEET1", "recId": "hb524xr6645", "websiteUrl": "https://purl.stanford.edu/hb524xr6645", "title": "Clearwater, Los Angeles Co., Cal., Sept. 1927, including Hynes.", "ckey": 2725322, "available": true, "iiifUrl": "https://purl.stanford.edu/hb524xr6645/iiif/manifest" }, "geometry": { "type": "Polygon", "coordinates": [ [ [ -118.1686541, 33.8973167 ], [ -118.1687151, 33.8893137 ], [ -118.1646317, 33.8893078 ], [ -118.1646202, 33.8973109 ], [ -118.1686541, 33.8973167 ] ] ] } },
{ "type": "Feature", "properties": { "Id": 0, "label": "SHEET2", "call_short": "G4364 .C629 1927 .S3", "call_num": "G4364 .C629 1927 .S3 SHEET2", "recId": "xx515cz6275", "websiteUrl": "https://purl.stanford.edu/xx515cz6275", "title": "Clearwater, Los Angeles Co., Cal., Sept. 1927, including Hynes.", "ckey": 2725322, "available": true, "iiifUrl": "https://purl.stanford.edu/xx515cz6275/iiif/manifest" }, "geometry": { "type": "Polygon", "coordinates": [ [ [ -118.1687151, 33.8893137 ], [ -118.1686769, 33.8830951 ], [ -118.164995, 33.8831178 ], [ -118.1650333, 33.8893364 ], [ -118.1687151, 33.8893137 ] ] ] } }
]
}
